[{"OBJECT_NAME":"SITRO-AIS 5 (KATYS)","OBJECT_ID":"2023-091L","EPOCH":"2026-03-09T22:36:44.932608","MEAN_MOTION":15.27079182,"ECCENTRICITY":0.00133776,"INCLINATION":97.5176,"RA_OF_ASC_NODE":132.0172,"ARG_OF_PERICENTER":94.5677,"MEAN_ANOMALY":265.709,"EPHEMERIS_TYPE":0,"CLASSIFICATION_TYPE":"U","NORAD_CAT_ID":57176,"ELEMENT_SET_NO":999,"REV_AT_EPOCH":14918,"BSTAR":0.00057530772,"MEAN_MOTION_DOT":0.00015262,"MEAN_MOTION_DDOT":0},{"OBJECT_NAME":"STARLINK-31213","OBJECT_ID":"2024-019H","EPOCH":"2026-03-09T13:30:58.734720","MEAN_MOTION":15.27576365,"ECCENTRICITY":0.00013594,"INCLINATION":43.0024,"RA_OF_ASC_NODE":249.5899,"ARG_OF_PERICENTER":272.271,"MEAN_ANOMALY":87.7986,"EPHEMERIS_TYPE":0,"CLASSIFICATION_TYPE":"U","NORAD_CAT_ID":58860,"ELEMENT_SET_NO":999,"REV_AT_EPOCH":11906,"BSTAR":2.2325467e-5,"MEAN_MOTION_DOT":3.52e-6,"MEAN_MOTION_DDOT":0}]
